OBJECT_NAME,OBJECT_ID,EPOCH,MEAN_MOTION,ECCENTRICITY,INCLINATION,RA_OF_ASC_NODE,ARG_OF_PERICENTER,MEAN_ANOMALY,EPHEMERIS_TYPE,CLASSIFICATION_TYPE,NORAD_CAT_ID,ELEMENT_SET_NO,REV_AT_EPOCH,BSTAR,MEAN_MOTION_DOT,MEAN_MOTION_DDOT
WILDFIRE 9,2023-133J,2026-06-08T02:30:31.444704,13.85388939,.00067844,81.0045,16.6778,43.4783,316.6908,0,U,57765,999,13976,.7681328E-5,.2E-6,0
WILDFIRE 10,2023-133K,2026-06-08T02:12:32.928192,13.85605538,.00071247,81.0033,16.2168,34.7445,325.4176,0,U,57766,999,13978,.70426531E-4,.92E-6,0
WILDFIRE 2,2023-133L,2026-06-08T02:16:46.682400,13.85303476,.00064921,80.9968,16.1651,53.9277,306.2480,0,U,57767,999,13974,.10049334E-3,.125E-5,0
WILDFIRE 8,2023-133M,2026-06-08T00:09:31.817664,13.85421046,.00066242,80.9957,15.7779,43.0321,317.1352,0,U,57768,999,13976,.50510163E-4,.69E-6,0
WILDFIRE 5,2023-133N,2026-06-08T02:48:42.342336,13.85464162,.00068596,81.0043,16.5145,40.1437,320.0225,0,U,57769,999,13977,.65359033E-4,.86E-6,0
STARLINK-30397,2023-134A,2026-06-07T23:37:07.286304,15.27560201,.00016107,42.9997,44.7750,267.8340,92.2328,0,U,57771,999,15331,.13130619E-4,.99E-6,0
STARLINK-30354,2023-134B,2026-06-07T10:07:37.605792,15.27573924,.00036727,43.0055,50.8387,264.1372,95.9061,0,U,57772,999,15319,.19026139E-4,.26E-5,0
STARLINK-30383,2023-134C,2026-06-06T10:31:34.577760,15.27593555,.00014066,43.0047,56.3670,267.8804,92.1886,0,U,57773,999,15304,.14319141E-3,.3682E-4,0
STARLINK-30384,2023-134D,2026-06-07T10:09:29.193120,15.27568560,.0003485,43.0060,50.8565,262.3300,97.7156,0,U,57774,999,15319,-.12332636E-4,-.602E-5,0
STARLINK-30305,2023-134E,2026-06-07T23:42:40.389408,15.27580349,.00003716,43.0030,44.7988,157.5421,202.5447,0,U,57775,999,15331,-.85348271E-4,-.2609E-4,0
STARLINK-30360,2023-134F,2026-06-07T23:44:31.055712,15.27572224,.00009853,43.0109,44.8091,313.7334,46.3436,0,U,57776,999,15331,-.19720155E-4,-.805E-5,0
STARLINK-30355,2023-134G,2026-06-06T09:45:31.351104,15.27589572,.000158,43.0016,56.9534,264.5400,95.5272,0,U,57777,999,15302,.39569649E-4,.827E-5,0
STARLINK-30385,2023-134H,2026-06-07T22:36:06.998688,15.27565471,.00007223,43.0072,33.3001,238.5698,121.5084,0,U,57778,999,15328,.1588929E-4,.175E-5,0
STARLINK-30359,2023-134J,2026-06-07T22:56:28.454496,15.27565770,.00008112,43.0035,33.4494,266.5976,93.4783,0,U,57779,999,15344,-.45945403E-4,-.1525E-4,0
STARLINK-30380,2023-134K,2026-06-07T23:05:40.164288,15.27572559,.00023311,42.9998,44.5933,279.4736,80.5852,0,U,57780,999,15331,-.1619259E-4,-.708E-5,0
STARLINK-30369,2023-134L,2026-06-07T23:00:06.894432,15.27563721,.00027458,43.0025,44.5657,277.5659,82.4881,0,U,57781,999,15331,-.39505046E-4,-.1349E-4,0
STARLINK-30376,2023-134M,2026-06-07T22:45:18.048384,15.27573298,.0002512,43.0044,44.5025,269.9069,90.1495,0,U,57782,999,15331,.6332672E-5,-.88E-6,0
STARLINK-30389,2023-134N,2026-06-07T21:01:08.886720,15.27599795,.00012264,43.0063,48.2316,262.6319,97.4394,0,U,57783,999,15326,.13336204E-3,.3412E-4,0
STARLINK-30388,2023-134P,2026-06-07T22:50:51.596448,15.27569699,.00034641,43.0044,44.5296,271.7397,88.3058,0,U,57784,999,15331,.4731421E-5,-.133E-5,0
STARLINK-30381,2023-134Q,2026-06-07T09:09:20.361024,15.27567194,.00011609,43.0041,47.8901,258.8176,101.2545,0,U,57785,999,15322,-.39233183E-4,-.1341E-4,0
STARLINK-30382,2023-134R,2026-06-07T10:06:31.712832,15.27557721,.00011341,43.0073,47.4253,258.6906,101.3818,0,U,57786,999,15323,-.77991708E-4,-.2406E-4,0
STARLINK-30378,2023-134S,2026-06-07T23:31:34.240224,15.27567233,.00008519,43.0064,44.7332,269.9572,90.1182,0,U,57787,999,15331,-.9838548E-5,-.533E-5,0
STARLINK-30387,2023-134T,2026-06-07T22:41:39.575616,15.27583381,.00019709,43.0045,33.3750,269.1595,90.9031,0,U,57788,999,15344,-.85404554E-4,-.2612E-4,0
STARLINK-30372,2023-134U,2026-06-08T02:07:13.727712,15.27584163,.00006358,43.0001,287.8548,278.9462,81.1318,0,U,57789,999,15469,.29287277E-4,.544E-5,0
STARLINK-30367,2023-134W,2026-06-07T23:11:13.402176,15.27562451,.00006996,43.0021,44.6334,288.0082,72.0693,0,U,57791,999,15331,-.57974756E-4,-.1856E-4,0
TIANQI-21,2023-135A,2026-06-08T05:05:37.053024,14.23113946,.00137087,49.9698,190.0809,226.7827,133.1941,0,U,57792,999,14335,.58991866E-4,-.25E-6,0
TIANQI-22,2023-135B,2026-06-08T04:41:50.909568,14.23114198,.0013769,49.9664,190.3609,230.0530,129.9173,0,U,57793,999,14334,.15993622E-3,.205E-5,0
TIANQI-23,2023-135C,2026-06-08T05:28:30.448416,14.23154972,.00144733,49.9706,190.2273,229.4278,130.5375,0,U,57794,999,14335,.14605403E-4,-.126E-5,0
TIANQI-24,2023-135D,2026-06-08T05:55:52.928832,14.23142077,.00143853,49.9717,190.3999,230.9217,129.0416,0,U,57795,999,14335,.97330346E-4,.62E-6,0
YAOGAN-33 03,2023-136A,2026-06-08T06:38:34.711296,14.58718872,.00069262,98.1959,83.7162,206.7092,153.3751,0,U,57797,999,14663,.10606381E-3,.449E-5,0
