WILDFIRE 9              
1 57765U 23133J   26159.10453061  .00000020  00000+0  76813-5 0  9996
2 57765  81.0045  16.6778 0006784  43.4783 316.6908 13.85388939139765
WILDFIRE 10             
1 57766U 23133K   26159.09204778  .00000092  00000+0  70427-4 0  9997
2 57766  81.0033  16.2168 0007124  34.7445 325.4176 13.85605538139783
WILDFIRE 2              
1 57767U 23133L   26159.09498475  .00000125  00000+0  10049-3 0  9997
2 57767  80.9968  16.1651 0006492  53.9277 306.2480 13.85303476139745
WILDFIRE 8              
1 57768U 23133M   26159.00661826  .00000069  00000+0  50510-4 0  9996
2 57768  80.9957  15.7779 0006624  43.0321 317.1352 13.85421046139762
WILDFIRE 5              
1 57769U 23133N   26159.11715674  .00000086  00000+0  65359-4 0  9996
2 57769  81.0043  16.5145 0006859  40.1437 320.0225 13.85464162139772
STARLINK-30397          
1 57771U 23134A   26158.98411211  .00000099  00000+0  13131-4 0  9999
2 57771  42.9997  44.7750 0001610 267.8340  92.2328 15.27560201153312
STARLINK-30354          
1 57772U 23134B   26158.42196303  .00000260  00000+0  19026-4 0  9990
2 57772  43.0055  50.8387 0003672 264.1372  95.9061 15.27573924153195
STARLINK-30383          
1 57773U 23134C   26157.43859465  .00003682  00000+0  14319-3 0  9996
2 57773  43.0047  56.3670 0001406 267.8804  92.1886 15.27593555153046
STARLINK-30384          
1 57774U 23134D   26158.42325455 -.00000602  00000+0 -12333-4 0  9990
2 57774  43.0060  50.8565 0003485 262.3300  97.7156 15.27568560153199
STARLINK-30305          
1 57775U 23134E   26158.98796747 -.00002609  00000+0 -85348-4 0  9993
2 57775  43.0030  44.7988 0000371 157.5421 202.5447 15.27580349153310
STARLINK-30360          
1 57776U 23134F   26158.98924833 -.00000805  00000+0 -19720-4 0  9990
2 57776  43.0109  44.8091 0000985 313.7334  46.3436 15.27572224153319
STARLINK-30355          
1 57777U 23134G   26157.40661286  .00000827  00000+0  39570-4 0  9994
2 57777  43.0016  56.9534 0001580 264.5400  95.5272 15.27589572153028
STARLINK-30385          
1 57778U 23134H   26158.94174767  .00000175  00000+0  15889-4 0  9991
2 57778  43.0072  33.3001 0000722 238.5698 121.5084 15.27565471153287
STARLINK-30359          
1 57779U 23134J   26158.95588489 -.00001525  00000+0 -45945-4 0  9991
2 57779  43.0035  33.4494 0000811 266.5976  93.4783 15.27565770153446
STARLINK-30380          
1 57780U 23134K   26158.96227042 -.00000708  00000+0 -16193-4 0  9994
2 57780  42.9998  44.5933 0002331 279.4736  80.5852 15.27572559153314
STARLINK-30369          
1 57781U 23134L   26158.95841313 -.00001349  00000+0 -39505-4 0  9991
2 57781  43.0025  44.5657 0002745 277.5659  82.4881 15.27563721153317
STARLINK-30376          
1 57782U 23134M   26158.94812556 -.00000088  00000+0  63327-5 0  9996
2 57782  43.0044  44.5025 0002512 269.9069  90.1495 15.27573298153317
STARLINK-30389          
1 57783U 23134N   26158.87579730  .00003412  00000+0  13336-3 0  9999
2 57783  43.0063  48.2316 0001226 262.6319  97.4394 15.27599795153264
STARLINK-30388          
1 57784U 23134P   26158.95198607 -.00000133  00000+0  47314-5 0  9992
2 57784  43.0044  44.5296 0003464 271.7397  88.3058 15.27569699153315
STARLINK-30381          
1 57785U 23134Q   26158.38148566 -.00001341  00000+0 -39233-4 0  9992
2 57785  43.0041  47.8901 0001160 258.8176 101.2545 15.27567194153228
STARLINK-30382          
1 57786U 23134R   26158.42120038 -.00002406  00000+0 -77992-4 0  9999
2 57786  43.0073  47.4253 0001134 258.6906 101.3818 15.27557721153230
STARLINK-30378          
1 57787U 23134S   26158.98025741 -.00000533  00000+0 -98385-5 0  9995
2 57787  43.0064  44.7332 0000851 269.9572  90.1182 15.27567233153315
STARLINK-30387          
1 57788U 23134T   26158.94559694 -.00002612  00000+0 -85405-4 0  9999
2 57788  43.0045  33.3750 0001970 269.1595  90.9031 15.27583381153440
STARLINK-30372          
1 57789U 23134U   26159.08835333  .00000544  00000+0  29287-4 0  9999
2 57789  43.0001 287.8548 0000635 278.9462  81.1318 15.27584163154699
STARLINK-30367          
1 57791U 23134W   26158.96612734 -.00001856  00000+0 -57975-4 0  9990
2 57791  43.0021  44.6334 0000699 288.0082  72.0693 15.27562451153315
TIANQI-21               
1 57792U 23135A   26159.21223441 -.00000025  00000+0  58992-4 0  9990
2 57792  49.9698 190.0809 0013708 226.7827 133.1941 14.23113946143359
TIANQI-22               
1 57793U 23135B   26159.19572812  .00000205  00000+0  15994-3 0  9990
2 57793  49.9664 190.3609 0013769 230.0530 129.9173 14.23114198143349
TIANQI-23               
1 57794U 23135C   26159.22813019 -.00000126  00000+0  14605-4 0  9994
2 57794  49.9706 190.2273 0014473 229.4278 130.5375 14.23154972143354
TIANQI-24               
1 57795U 23135D   26159.24714038  .00000062  00000+0  97330-4 0  9992
2 57795  49.9717 190.3999 0014385 230.9217 129.0416 14.23142077143357
YAOGAN-33 03            
1 57797U 23136A   26159.27679064  .00000449  00000+0  10606-3 0  9996
2 57797  98.1959  83.7162 0006926 206.7092 153.3751 14.58718872146630
